{"type": "FeatureCollection", "features": [ {"type": "Feature", "properties": {"norad_id": 34001, "name": "COSMOS 2251 DEB", "group": "cosmos-2251-debris", "lat": -64.09529161213563, "lon": -97.6730035843377, "alt_km": 775.2298684867319, "timestamp": "2025-12-03T13:52:09.960070+00:00", "meta": {"OBJECT_NAME": "COSMOS 2251 DEB", "OBJECT_ID": "1993-036GL", "EPOCH": "2025-12-03T08:12:20.602368", "MEAN_MOTION": 14.37078066, "ECCENTRICITY": 0.00195276, "INCLINATION": 74.0383, "RA_OF_ASC_NODE": 298.8679, "ARG_OF_PERICENTER": 22.1665, "MEAN_ANOMALY": 128.3824, "EPHEMERIS_TYPE": 0, "CLASSIFICATION_TYPE": "U", "NORAD_CAT_ID": 34001, "ELEMENT_SET_NO": 999, "REV_AT_EPOCH": 88011, "BSTAR": 0.00031778199, "MEAN_MOTION_DOT": 9.19e-06, "MEAN_MOTION_DDOT": 0}, "tle": {"line1": "1 34001U 93036GL  25337.34190512  .00000919  00000+0  31778-3 0  9991", "line2": "2 34001  74.0383 298.8679 0019527  22.1665 128.3824 14.37078066880118"}}, "geometry": {"type": "Point", "coordinates": [-97.6730035843377, -64.09529161213563]}}, {"type": "Feature", "properties": {"norad_id": 34003, "name": "COSMOS 2251 DEB", "group": "cosmos-2251-debris", "lat": 50.04834966429334, "lon": 100.63911408472467, "alt_km": 878.7119000615521, "timestamp": "2025-12-03T13:52:09.960082+00:00", "meta": {"OBJECT_NAME": "COSMOS 2251 DEB", "OBJECT_ID": "1993-036GN", "EPOCH": "2025-12-03T08:04:48.560160", "MEAN_MOTION": 13.84063937, "ECCENTRICITY": 0.02736839, "INCLINATION": 74.0779, "RA_OF_ASC_NODE": 300.9687, "ARG_OF_PERICENTER": 55.2105, "MEAN_ANOMALY": 307.4448, "EPHEMERIS_TYPE": 0, "CLASSIFICATION_TYPE": "U", "NORAD_CAT_ID": 34003, "ELEMENT_SET_NO": 999, "REV_AT_EPOCH": 84295, "BSTAR": 0.0024892144, "MEAN_MOTION_DOT": 3.681e-05, "MEAN_MOTION_DDOT": 0}, "tle": {"line1": "1 34003U 93036GN  25337.33667315  .00003681  00000+0  24892-2 0  9999", "line2": "2 34003  74.0779 300.9687 0273683  55.2105 307.4448 13.84063937842958"}}, "geometry": {"type": "Point", "coordinates": [100.63911408472467, 50.04834966429334]}}, {"type": "Feature", "properties": {"norad_id": 34004, "name": "COSMOS 2251 DEB", "group": "cosmos-2251-debris", "lat": 31.884460672413645, "lon": 140.0305477547292, "alt_km": 749.6604125037438, "timestamp": "2025-12-03T13:52:09.960093+00:00", "meta": {"OBJECT_NAME": "COSMOS 2251 DEB", "OBJECT_ID": "1993-036GP", "EPOCH": "2025-12-02T22:16:51.028896", "MEAN_MOTION": 14.48845262, "ECCENTRICITY": 0.00330744, "INCLINATION": 74.0352, "RA_OF_ASC_NODE": 331.5054, "ARG_OF_PERICENTER": 345.138, "MEAN_ANOMALY": 14.8804, "EPHEMERIS_TYPE": 0, "CLASSIFICATION_TYPE": "U", "NORAD_CAT_ID": 34004, "ELEMENT_SET_NO": 999, "REV_AT_EPOCH": 87888, "BSTAR": 0.0018000358, "MEAN_MOTION_DOT": 6.83e-05, "MEAN_MOTION_DDOT": 0}, "tle": {"line1": "1 34004U 93036GP  25336.92836839  .00006830  00000+0  18000-2 0  9996", "line2": "2 34004  74.0352 331.5054 0033074 345.1380  14.8804 14.48845262878884"}}, "geometry": {"type": "Point", "coordinates": [140.0305477547292, 31.884460672413645]}}, {"type": "Feature", "properties": {"norad_id": 34005, "name": "COSMOS 2251 DEB", "group": "cosmos-2251-debris", "lat": -14.76609943648342, "lon": -133.75065851398875, "alt_km": 747.3226022763765, "timestamp": "2025-12-03T13:52:09.960104+00:00", "meta": {"OBJECT_NAME": "COSMOS 2251 DEB", "OBJECT_ID": "1993-036GQ", "EPOCH": "2025-12-03T02:59:59.360640", "MEAN_MOTION": 14.40292531, "ECCENTRICITY": 0.00204633, "INCLINATION": 74.0452, "RA_OF_ASC_NODE": 231.4102, "ARG_OF_PERICENTER": 351.4142, "MEAN_ANOMALY": 165.9863, "EPHEMERIS_TYPE": 0, "CLASSIFICATION_TYPE": "U", "NORAD_CAT_ID": 34005, "ELEMENT_SET_NO": 999, "REV_AT_EPOCH": 88240, "BSTAR": 0.00016043894, "MEAN_MOTION_DOT": 4.83e-06, "MEAN_MOTION_DDOT": 0}, "tle": {"line1": "1 34005U 93036GQ  25337.12499260  .00000483  00000+0  16044-3 0  9998", "line2": "2 34005  74.0452 231.4102 0020463 351.4142 165.9863 14.40292531882405"}}, "geometry": {"type": "Point", "coordinates": [-133.75065851398875, -14.76609943648342]}}, {"type": "Feature", "properties": {"norad_id": 34006, "name": "COSMOS 2251 DEB", "group": "cosmos-2251-debris", "lat": -73.85471905417167, "lon": 80.7285369592167, "alt_km": 600.9683547146069, "timestamp": "2025-12-03T13:52:09.960114+00:00", "meta": {"OBJECT_NAME": "COSMOS 2251 DEB", "OBJECT_ID": "1993-036GR", "EPOCH": "2025-12-02T19:02:31.984800", "MEAN_MOTION": 14.93623986, "ECCENTRICITY": 0.0012293, "INCLINATION": 74.054, "RA_OF_ASC_NODE": 163.2959, "ARG_OF_PERICENTER": 122.0289, "MEAN_ANOMALY": 253.9852, "EPHEMERIS_TYPE": 0, "CLASSIFICATION_TYPE": "U", "NORAD_CAT_ID": 34006, "ELEMENT_SET_NO": 999, "REV_AT_EPOCH": 88520, "BSTAR": 0.0040343993, "MEAN_MOTION_DOT": 0.00042902, "MEAN_MOTION_DDOT": 0}, "tle": {"line1": "1 34006U 93036GR  25336.79342575  .00042902  00000+0  40344-2 0  9998", "line2": "2 34006  74.0540 163.2959 0012293 122.0289 253.9852 14.93623986885209"}}, "geometry": {"type": "Point", "coordinates": [80.7285369592167, -73.85471905417167]}}, {"type": "Feature", "properties": {"norad_id": 34007, "name": "COSMOS 2251 DEB", "group": "cosmos-2251-debris", "lat": 70.13676727175931, "lon": 132.04638850976687, "alt_km": 646.8372915844338, "timestamp": "2025-12-03T13:52:09.960125+00:00", "meta": {"OBJECT_NAME": "COSMOS 2251 DEB", "OBJECT_ID": "1993-036GS", "EPOCH": "2025-12-03T08:29:16.795104", "MEAN_MOTION": 14.64677281, "ECCENTRICITY": 0.00447866, "INCLINATION": 74.0199, "RA_OF_ASC_NODE": 4.9635, "ARG_OF_PERICENTER": 142.8321, "MEAN_ANOMALY": 217.5963, "EPHEMERIS_TYPE": 0, "CLASSIFICATION_TYPE": "U", "NORAD_CAT_ID": 34007, "ELEMENT_SET_NO": 999, "REV_AT_EPOCH": 88942, "BSTAR": 0.0009338615, "MEAN_MOTION_DOT": 5.014e-05, "MEAN_MOTION_DDOT": 0}, "tle": {"line1": "1 34007U 93036GS  25337.35366661  .00005014  00000+0  93386-3 0  9992", "line2": "2 34007  74.0199   4.9635 0044786 142.8321 217.5963 14.64677281889423"}}, "geometry": {"type": "Point", "coordinates": [132.04638850976687, 70.13676727175931]}}, {"type": "Feature", "properties": {"norad_id": 34008, "name": "COSMOS 2251 DEB", "group": "cosmos-2251-debris", "lat": 49.54916886865382, "lon": 147.6436183452151, "alt_km": 790.159961596959, "timestamp": "2025-12-03T13:52:09.960135+00:00", "meta": {"OBJECT_NAME": "COSMOS 2251 DEB", "OBJECT_ID": "1993-036GT", "EPOCH": "2025-12-03T06:38:01.764384", "MEAN_MOTION": 14.33135442, "ECCENTRICITY": 0.00239721, "INCLINATION": 74.0343, "RA_OF_ASC_NODE": 347.8141, "ARG_OF_PERICENTER": 344.8931, "MEAN_ANOMALY": 27.7312, "EPHEMERIS_TYPE": 0, "CLASSIFICATION_TYPE": "U", "NORAD_CAT_ID": 34008, "ELEMENT_SET_NO": 999, "REV_AT_EPOCH": 87829, "BSTAR": 0.00017917375, "MEAN_MOTION_DOT": 4.67e-06, "MEAN_MOTION_DDOT": 0}, "tle": {"line1": "1 34008U 93036GT  25337.27640931  .00000467  00000+0  17917-3 0  9992", "line2": "2 34008  74.0343 347.8141 0023972 344.8931  27.7312 14.33135442878297"}}, "geometry": {"type": "Point", "coordinates": [147.6436183452151, 49.54916886865382]}}, {"type": "Feature", "properties": {"norad_id": 34009, "name": "COSMOS 2251 DEB", "group": "cosmos-2251-debris", "lat": 17.931071672462203, "lon": 168.36604835714326, "alt_km": 782.5823421778696, "timestamp": "2025-12-03T13:52:09.960146+00:00", "meta": {"OBJECT_NAME": "COSMOS 2251 DEB", "OBJECT_ID": "1993-036GU", "EPOCH": "2025-12-03T08:10:26.263200", "MEAN_MOTION": 14.33210296, "ECCENTRICITY": 0.00262596, "INCLINATION": 74.0372, "RA_OF_ASC_NODE": 354.1139, "ARG_OF_PERICENTER": 66.8317, "MEAN_ANOMALY": 310.1555, "EPHEMERIS_TYPE": 0, "CLASSIFICATION_TYPE": "U", "NORAD_CAT_ID": 34009, "ELEMENT_SET_NO": 999, "REV_AT_EPOCH": 87811, "BSTAR": 0.00019427062, "MEAN_MOTION_DOT": 5.1e-06, "MEAN_MOTION_DDOT": 0}, "tle": {"line1": "1 34009U 93036GU  25337.34058175  .00000510  00000+0  19427-3 0  9991", "line2": "2 34009  74.0372 354.1139 0026259  66.8317 310.1555 14.33210296878118"}}, "geometry": {"type": "Point", "coordinates": [168.36604835714326, 17.931071672462203]}}, {"type": "Feature", "properties": {"norad_id": 34010, "name": "COSMOS 2251 DEB", "group": "cosmos-2251-debris", "lat": 40.683466525045326, "lon": 108.20181894997042, "alt_km": 513.6103877003534, "timestamp": "2025-12-03T13:52:09.960156+00:00", "meta": {"OBJECT_NAME": "COSMOS 2251 DEB", "OBJECT_ID": "1993-036GV", "EPOCH": "2025-12-03T05:20:54.832704", "MEAN_MOTION": 15.16117398, "ECCENTRICITY": 0.00044273, "INCLINATION": 73.9998, "RA_OF_ASC_NODE": 303.2235, "ARG_OF_PERICENTER": 52.57, "MEAN_ANOMALY": 307.5898, "EPHEMERIS_TYPE": 0, "CLASSIFICATION_TYPE": "U", "NORAD_CAT_ID": 34010, "ELEMENT_SET_NO": 999, "REV_AT_EPOCH": 89141, "BSTAR": 0.005246117, "MEAN_MOTION_DOT": 0.00102567, "MEAN_MOTION_DDOT": 0}, "tle": {"line1": "1 34010U 93036GV  25337.22285686  .00102567  00000+0  52461-2 0  9998", "line2": "2 34010  73.9998 303.2235 0004427  52.5700 307.5898 15.16117398891414"}}, "geometry": {"type": "Point", "coordinates": [108.20181894997042, 40.683466525045326]}}, {"type": "Feature", "properties": {"norad_id": 34011, "name": "COSMOS 2251 DEB", "group": "cosmos-2251-debris", "lat": -61.083676999961405, "lon": -161.58951849880586, "alt_km": 784.5350708302321, "timestamp": "2025-12-03T13:52:09.960166+00:00", "meta": {"OBJECT_NAME": "COSMOS 2251 DEB", "OBJECT_ID": "1993-036GW", "EPOCH": "2025-12-03T07:44:24.155520", "MEAN_MOTION": 14.41694964, "ECCENTRICITY": 0.00351833, "INCLINATION": 74.0145, "RA_OF_ASC_NODE": 347.6236, "ARG_OF_PERICENTER": 74.3155, "MEAN_ANOMALY": 286.1878, "EPHEMERIS_TYPE": 0, "CLASSIFICATION_TYPE": "U", "NORAD_CAT_ID": 34011, "ELEMENT_SET_NO": 999, "REV_AT_EPOCH": 87780, "BSTAR": 0.0010459629, "MEAN_MOTION_DOT": 3.411e-05, "MEAN_MOTION_DDOT": 0}, "tle": {"line1": "1 34011U 93036GW  25337.32250180  .00003411  00000+0  10460-2 0  9992", "line2": "2 34011  74.0145 347.6236 0035183  74.3155 286.1878 14.41694964877806"}}, "geometry": {"type": "Point", "coordinates": [-161.58951849880586, -61.083676999961405]}}]}